{"type": "FeatureCollection", "features": [ {"type": "Feature", "properties": {"norad_id": 35459, "name": "COSMOS 2251 DEB", "group": "cosmos-2251-debris", "lat": -12.360465985584035, "lon": -164.4058805209406, "alt_km": 782.3833073261849, "timestamp": "2025-12-06T07:31:40.631982+00:00", "meta": {"OBJECT_NAME": "COSMOS 2251 DEB", "OBJECT_ID": "1993-036ALD", "EPOCH": "2025-12-01T22:21:32.007744", "MEAN_MOTION": 14.37436198, "ECCENTRICITY": 0.00166822, "INCLINATION": 73.8706, "RA_OF_ASC_NODE": 207.3714, "ARG_OF_PERICENTER": 158.6603, "MEAN_ANOMALY": 201.5249, "EPHEMERIS_TYPE": 0, "CLASSIFICATION_TYPE": "U", "NORAD_CAT_ID": 35459, "ELEMENT_SET_NO": 999, "REV_AT_EPOCH": 58206, "BSTAR": 0.00027997141, "MEAN_MOTION_DOT": 8.11e-06, "MEAN_MOTION_DDOT": 0}, "tle": {"line1": "1 35459U 93036ALD 25335.93162046  .00000811  00000+0  27997-3 0  9992", "line2": "2 35459  73.8706 207.3714 0016682 158.6603 201.5249 14.37436198582065"}}, "geometry": {"type": "Point", "coordinates": [-164.4058805209406, -12.360465985584035]}}, {"type": "Feature", "properties": {"norad_id": 35462, "name": "COSMOS 2251 DEB", "group": "cosmos-2251-debris", "lat": -56.298676448315206, "lon": 125.77467483310306, "alt_km": 786.4992931542629, "timestamp": "2025-12-06T07:31:40.631992+00:00", "meta": {"OBJECT_NAME": "COSMOS 2251 DEB", "OBJECT_ID": "1993-036ALG", "EPOCH": "2025-12-01T03:45:45.448128", "MEAN_MOTION": 14.29124029, "ECCENTRICITY": 0.00870444, "INCLINATION": 74.036, "RA_OF_ASC_NODE": 289.718, "ARG_OF_PERICENTER": 327.319, "MEAN_ANOMALY": 32.2589, "EPHEMERIS_TYPE": 0, "CLASSIFICATION_TYPE": "U", "NORAD_CAT_ID": 35462, "ELEMENT_SET_NO": 999, "REV_AT_EPOCH": 66215, "BSTAR": 0.0017949723, "MEAN_MOTION_DOT": 4.718e-05, "MEAN_MOTION_DDOT": 0}, "tle": {"line1": "1 35462U 93036ALG 25335.15677602  .00004718  00000+0  17950-2 0  9996", "line2": "2 35462  74.0360 289.7180 0087044 327.3190  32.2589 14.29124029662158"}}, "geometry": {"type": "Point", "coordinates": [125.77467483310306, -56.298676448315206]}}, {"type": "Feature", "properties": {"norad_id": 35465, "name": "COSMOS 2251 DEB", "group": "cosmos-2251-debris", "lat": -46.11295470711002, "lon": -168.3411889720216, "alt_km": 727.4254124439258, "timestamp": "2025-12-06T07:31:40.632002+00:00", "meta": {"OBJECT_NAME": "COSMOS 2251 DEB", "OBJECT_ID": "1993-036ALK", "EPOCH": "2025-11-29T22:48:34.232544", "MEAN_MOTION": 14.44263019, "ECCENTRICITY": 0.00634289, "INCLINATION": 73.9997, "RA_OF_ASC_NODE": 220.8763, "ARG_OF_PERICENTER": 24.0529, "MEAN_ANOMALY": 336.3567, "EPHEMERIS_TYPE": 0, "CLASSIFICATION_TYPE": "U", "NORAD_CAT_ID": 35465, "ELEMENT_SET_NO": 999, "REV_AT_EPOCH": 87057, "BSTAR": 0.00049692277, "MEAN_MOTION_DOT": 1.723e-05, "MEAN_MOTION_DDOT": 0}, "tle": {"line1": "1 35465U 93036ALK 25333.95039621  .00001723  00000+0  49692-3 0  9990", "line2": "2 35465  73.9997 220.8763 0063428  24.0529 336.3567 14.44263019870576"}}, "geometry": {"type": "Point", "coordinates": [-168.3411889720216, -46.11295470711002]}}, {"type": "Feature", "properties": {"norad_id": 35469, "name": "COSMOS 2251 DEB", "group": "cosmos-2251-debris", "lat": 20.020255650502925, "lon": 41.94475257122899, "alt_km": 780.3579856781453, "timestamp": "2025-12-06T07:31:40.632012+00:00", "meta": {"OBJECT_NAME": "COSMOS 2251 DEB", "OBJECT_ID": "1993-036ALP", "EPOCH": "2025-12-04T10:42:59.606208", "MEAN_MOTION": 14.49807637, "ECCENTRICITY": 0.0077331, "INCLINATION": 74.0179, "RA_OF_ASC_NODE": 39.4585, "ARG_OF_PERICENTER": 196.8303, "MEAN_ANOMALY": 163.029, "EPHEMERIS_TYPE": 0, "CLASSIFICATION_TYPE": "U", "NORAD_CAT_ID": 35469, "ELEMENT_SET_NO": 999, "REV_AT_EPOCH": 87991, "BSTAR": 0.00024705, "MEAN_MOTION_DOT": 9.6e-06, "MEAN_MOTION_DDOT": 0}, "tle": {"line1": "1 35469U 93036ALP 25338.44652322  .00000960  00000+0  24705-3 0  9992", "line2": "2 35469  74.0179  39.4585 0077331 196.8303 163.0290 14.49807637879916"}}, "geometry": {"type": "Point", "coordinates": [41.94475257122899, 20.020255650502925]}}, {"type": "Feature", "properties": {"norad_id": 35475, "name": "COSMOS 2251 DEB", "group": "cosmos-2251-debris", "lat": 41.51541615176847, "lon": -16.60538614514891, "alt_km": 665.0172301075463, "timestamp": "2025-12-06T07:31:40.632022+00:00", "meta": {"OBJECT_NAME": "COSMOS 2251 DEB", "OBJECT_ID": "1993-036ALV", "EPOCH": "2025-12-04T05:53:28.779072", "MEAN_MOTION": 14.69456572, "ECCENTRICITY": 0.0021217, "INCLINATION": 74.0215, "RA_OF_ASC_NODE": 182.096, "ARG_OF_PERICENTER": 255.5479, "MEAN_ANOMALY": 104.3337, "EPHEMERIS_TYPE": 0, "CLASSIFICATION_TYPE": "U", "NORAD_CAT_ID": 35475, "ELEMENT_SET_NO": 999, "REV_AT_EPOCH": 65492, "BSTAR": 0.0040682, "MEAN_MOTION_DOT": 0.00024238, "MEAN_MOTION_DDOT": 0}, "tle": {"line1": "1 35475U 93036ALV 25338.24547198  .00024238  00000+0  40682-2 0  9996", "line2": "2 35475  74.0215 182.0960 0021217 255.5479 104.3337 14.69456572654927"}}, "geometry": {"type": "Point", "coordinates": [-16.60538614514891, 41.51541615176847]}}, {"type": "Feature", "properties": {"norad_id": 35476, "name": "COSMOS 2251 DEB", "group": "cosmos-2251-debris", "lat": -24.304604955987884, "lon": -99.01355480090913, "alt_km": 658.9466880377377, "timestamp": "2025-12-06T07:31:40.632032+00:00", "meta": {"OBJECT_NAME": "COSMOS 2251 DEB", "OBJECT_ID": "1993-036ALW", "EPOCH": "2025-12-05T06:19:47.099712", "MEAN_MOTION": 14.75414836, "ECCENTRICITY": 0.00173279, "INCLINATION": 73.9784, "RA_OF_ASC_NODE": 75.5897, "ARG_OF_PERICENTER": 61.6981, "MEAN_ANOMALY": 328.9874, "EPHEMERIS_TYPE": 0, "CLASSIFICATION_TYPE": "U", "NORAD_CAT_ID": 35476, "ELEMENT_SET_NO": 999, "REV_AT_EPOCH": 87777, "BSTAR": 0.0034503917, "MEAN_MOTION_DOT": 0.00023545, "MEAN_MOTION_DDOT": 0}, "tle": {"line1": "1 35476U 93036ALW 25339.26373958  .00023545  00000+0  34504-2 0  9997", "line2": "2 35476  73.9784  75.5897 0017327  61.6981 328.9874 14.75414836877777"}}, "geometry": {"type": "Point", "coordinates": [-99.01355480090913, -24.304604955987884]}}, {"type": "Feature", "properties": {"norad_id": 35580, "name": "COSMOS 2251 DEB", "group": "cosmos-2251-debris", "lat": -73.73589131733942, "lon": 91.4912013780798, "alt_km": 886.9471528977037, "timestamp": "2025-12-06T07:31:40.632042+00:00", "meta": {"OBJECT_NAME": "COSMOS 2251 DEB", "OBJECT_ID": "1993-036ALX", "EPOCH": "2025-12-04T07:24:08.646624", "MEAN_MOTION": 13.83798335, "ECCENTRICITY": 0.0281843, "INCLINATION": 73.9013, "RA_OF_ASC_NODE": 193.0575, "ARG_OF_PERICENTER": 199.908, "MEAN_ANOMALY": 159.0873, "EPHEMERIS_TYPE": 0, "CLASSIFICATION_TYPE": "U", "NORAD_CAT_ID": 35580, "ELEMENT_SET_NO": 999, "REV_AT_EPOCH": 62140, "BSTAR": 0.0028298, "MEAN_MOTION_DOT": 4.237e-05, "MEAN_MOTION_DDOT": 0}, "tle": {"line1": "1 35580U 93036ALX 25338.30843341  .00004237  00000+0  28298-2 0  9995", "line2": "2 35580  73.9013 193.0575 0281843 199.9080 159.0873 13.83798335621404"}}, "geometry": {"type": "Point", "coordinates": [91.4912013780798, -73.73589131733942]}}, {"type": "Feature", "properties": {"norad_id": 35583, "name": "COSMOS 2251 DEB", "group": "cosmos-2251-debris", "lat": -71.46660115795535, "lon": 101.80445797097836, "alt_km": 779.4316907386274, "timestamp": "2025-12-06T07:31:40.632052+00:00", "meta": {"OBJECT_NAME": "COSMOS 2251 DEB", "OBJECT_ID": "1993-036AMA", "EPOCH": "2025-12-03T10:54:50.604768", "MEAN_MOTION": 13.55314343, "ECCENTRICITY": 0.03858841, "INCLINATION": 73.9176, "RA_OF_ASC_NODE": 227.0636, "ARG_OF_PERICENTER": 253.1142, "MEAN_ANOMALY": 102.7326, "EPHEMERIS_TYPE": 0, "CLASSIFICATION_TYPE": "U", "NORAD_CAT_ID": 35583, "ELEMENT_SET_NO": 999, "REV_AT_EPOCH": 82286, "BSTAR": 0.0006499944, "MEAN_MOTION_DOT": 7.01e-06, "MEAN_MOTION_DDOT": 0}, "tle": {"line1": "1 35583U 93036AMA 25337.45475237  .00000701  00000+0  64999-3 0  9999", "line2": "2 35583  73.9176 227.0636 0385884 253.1142 102.7326 13.55314343822868"}}, "geometry": {"type": "Point", "coordinates": [101.80445797097836, -71.46660115795535]}}, {"type": "Feature", "properties": {"norad_id": 35585, "name": "COSMOS 2251 DEB", "group": "cosmos-2251-debris", "lat": 62.14049254079405, "lon": 146.198015611541, "alt_km": 1187.8108217801919, "timestamp": "2025-12-06T07:31:40.632062+00:00", "meta": {"OBJECT_NAME": "COSMOS 2251 DEB", "OBJECT_ID": "1993-036AMC", "EPOCH": "2025-12-04T07:54:11.347200", "MEAN_MOTION": 13.75209322, "ECCENTRICITY": 0.0310609, "INCLINATION": 73.9717, "RA_OF_ASC_NODE": 2.4547, "ARG_OF_PERICENTER": 276.3473, "MEAN_ANOMALY": 97.5406, "EPHEMERIS_TYPE": 0, "CLASSIFICATION_TYPE": "U", "NORAD_CAT_ID": 35585, "ELEMENT_SET_NO": 999, "REV_AT_EPOCH": 63948, "BSTAR": 0.0020064, "MEAN_MOTION_DOT": 2.707e-05, "MEAN_MOTION_DDOT": 0}, "tle": {"line1": "1 35585U 93036AMC 25338.32929800  .00002707  00000+0  20064-2 0  9990", "line2": "2 35585  73.9717   2.4547 0310609 276.3473  97.5406 13.75209322639480"}}, "geometry": {"type": "Point", "coordinates": [146.198015611541, 62.14049254079405]}}, {"type": "Feature", "properties": {"norad_id": 35586, "name": "COSMOS 2251 DEB", "group": "cosmos-2251-debris", "lat": 61.71835667096011, "lon": 100.59690637062607, "alt_km": 973.2431813800486, "timestamp": "2025-12-06T07:31:40.632072+00:00", "meta": {"OBJECT_NAME": "COSMOS 2251 DEB", "OBJECT_ID": "1993-036AMD", "EPOCH": "2025-12-02T16:49:03.133344", "MEAN_MOTION": 13.52074918, "ECCENTRICITY": 0.04051153, "INCLINATION": 74.0205, "RA_OF_ASC_NODE": 318.5607, "ARG_OF_PERICENTER": 196.0051, "MEAN_ANOMALY": 342.734, "EPHEMERIS_TYPE": 0, "CLASSIFICATION_TYPE": "U", "NORAD_CAT_ID": 35586, "ELEMENT_SET_NO": 999, "REV_AT_EPOCH": 60246, "BSTAR": 0.00045411914, "MEAN_MOTION_DOT": 4.79e-06, "MEAN_MOTION_DDOT": 0}, "tle": {"line1": "1 35586U 93036AMD 25336.70073071  .00000479  00000+0  45412-3 0  9990", "line2": "2 35586  74.0205 318.5607 0405115 196.0051 342.7340 13.52074918602466"}}, "geometry": {"type": "Point", "coordinates": [100.59690637062607, 61.71835667096011]}}]}